{"type": "FeatureCollection", "features": [ {"type": "Feature", "properties": {"norad_id": 29750, "name": "FENGYUN 1C DEB", "group": "fengyun-1c-debris", "lat": -66.55429155021831, "lon": 49.71740952897615, "alt_km": 845.5919339796437, "timestamp": "2025-12-26T03:50:12.364200+00:00", "meta": {"OBJECT_NAME": "FENGYUN 1C DEB", "OBJECT_ID": "1999-025AQ", "EPOCH": "2025-12-25T15:07:17.895072", "MEAN_MOTION": 14.09654984, "ECCENTRICITY": 0.0035101, "INCLINATION": 98.7535, "RA_OF_ASC_NODE": 28.3925, "ARG_OF_PERICENTER": 264.0084, "MEAN_ANOMALY": 220.5827, "EPHEMERIS_TYPE": 0, "CLASSIFICATION_TYPE": "U", "NORAD_CAT_ID": 29750, "ELEMENT_SET_NO": 999, "REV_AT_EPOCH": 97255, "BSTAR": 0.00023927, "MEAN_MOTION_DOT": 3.79e-06, "MEAN_MOTION_DDOT": 0}, "tle": {"line1": "1 29750U 99025AQ  25359.63006823  .00000379  00000+0  23927-3 0  9994", "line2": "2 29750  98.7535  28.3925 0035101 264.0084 220.5827 14.09654984972559"}}, "geometry": {"type": "Point", "coordinates": [49.71740952897615, -66.55429155021831]}}, {"type": "Feature", "properties": {"norad_id": 29751, "name": "FENGYUN 1C DEB", "group": "fengyun-1c-debris", "lat": 21.47576282683918, "lon": 24.254227225324264, "alt_km": 799.5501592995997, "timestamp": "2025-12-26T03:50:12.364211+00:00", "meta": {"OBJECT_NAME": "FENGYUN 1C DEB", "OBJECT_ID": "1999-025AR", "EPOCH": "2025-12-25T00:53:12.323616", "MEAN_MOTION": 14.23638738, "ECCENTRICITY": 0.00901712, "INCLINATION": 98.5403, "RA_OF_ASC_NODE": 26.5531, "ARG_OF_PERICENTER": 103.7788, "MEAN_ANOMALY": 287.2743, "EPHEMERIS_TYPE": 0, "CLASSIFICATION_TYPE": "U", "NORAD_CAT_ID": 29751, "ELEMENT_SET_NO": 999, "REV_AT_EPOCH": 98248, "BSTAR": 0.00015747264, "MEAN_MOTION_DOT": 3.33e-06, "MEAN_MOTION_DDOT": 0}, "tle": {"line1": "1 29751U 99025AR  25359.03694819  .00000333  00000+0  15747-3 0  9998", "line2": "2 29751  98.5403  26.5531 0090171 103.7788 287.2743 14.23638738982488"}}, "geometry": {"type": "Point", "coordinates": [24.254227225324264, 21.47576282683918]}}, {"type": "Feature", "properties": {"norad_id": 29754, "name": "FENGYUN 1C DEB", "group": "fengyun-1c-debris", "lat": -56.507747071782724, "lon": 116.60773570808468, "alt_km": 840.085498700355, "timestamp": "2025-12-26T03:50:12.364221+00:00", "meta": {"OBJECT_NAME": "FENGYUN 1C DEB", "OBJECT_ID": "1999-025AU", "EPOCH": "2025-12-25T12:58:25.483008", "MEAN_MOTION": 14.19197491, "ECCENTRICITY": 0.0036609, "INCLINATION": 98.8844, "RA_OF_ASC_NODE": 102.3135, "ARG_OF_PERICENTER": 203.1384, "MEAN_ANOMALY": 176.6774, "EPHEMERIS_TYPE": 0, "CLASSIFICATION_TYPE": "U", "NORAD_CAT_ID": 29754, "ELEMENT_SET_NO": 999, "REV_AT_EPOCH": 97536, "BSTAR": 0.00092422, "MEAN_MOTION_DOT": 1.904e-05, "MEAN_MOTION_DDOT": 0}, "tle": {"line1": "1 29754U 99025AU  25359.54057272  .00001904  00000+0  92422-3 0  9993", "line2": "2 29754  98.8844 102.3135 0036609 203.1384 176.6774 14.19197491975364"}}, "geometry": {"type": "Point", "coordinates": [116.60773570808468, -56.507747071782724]}}, {"type": "Feature", "properties": {"norad_id": 29758, "name": "FENGYUN 1C DEB", "group": "fengyun-1c-debris", "lat": -58.06959849940863, "lon": -78.13521434979404, "alt_km": 747.5455405254379, "timestamp": "2025-12-26T03:50:12.364231+00:00", "meta": {"OBJECT_NAME": "FENGYUN 1C DEB", "OBJECT_ID": "1999-025AY", "EPOCH": "2025-12-25T06:59:10.847328", "MEAN_MOTION": 14.41172161, "ECCENTRICITY": 0.0022359, "INCLINATION": 98.8551, "RA_OF_ASC_NODE": 115.4521, "ARG_OF_PERICENTER": 269.6138, "MEAN_ANOMALY": 144.8363, "EPHEMERIS_TYPE": 0, "CLASSIFICATION_TYPE": "U", "NORAD_CAT_ID": 29758, "ELEMENT_SET_NO": 999, "REV_AT_EPOCH": 97852, "BSTAR": 0.0026845, "MEAN_MOTION_DOT": 8.647e-05, "MEAN_MOTION_DDOT": 0}, "tle": {"line1": "1 29758U 99025AY  25359.29109777  .00008647  00000+0  26845-2 0  9993", "line2": "2 29758  98.8551 115.4521 0022359 269.6138 144.8363 14.41172161978522"}}, "geometry": {"type": "Point", "coordinates": [-78.13521434979404, -58.06959849940863]}}, {"type": "Feature", "properties": {"norad_id": 29760, "name": "FENGYUN 1C DEB", "group": "fengyun-1c-debris", "lat": -1.0579718228542918, "lon": -178.22012180188676, "alt_km": 800.4963958571298, "timestamp": "2025-12-26T03:50:12.364241+00:00", "meta": {"OBJECT_NAME": "FENGYUN 1C DEB", "OBJECT_ID": "1999-025BA", "EPOCH": "2025-12-25T13:20:56.561280", "MEAN_MOTION": 14.08297007, "ECCENTRICITY": 0.0131384, "INCLINATION": 98.7625, "RA_OF_ASC_NODE": 1.3567, "ARG_OF_PERICENTER": 137.4967, "MEAN_ANOMALY": 223.6465, "EPHEMERIS_TYPE": 0, "CLASSIFICATION_TYPE": "U", "NORAD_CAT_ID": 29760, "ELEMENT_SET_NO": 999, "REV_AT_EPOCH": 97273, "BSTAR": 9.1117e-05, "MEAN_MOTION_DOT": 1.27e-06, "MEAN_MOTION_DDOT": 0}, "tle": {"line1": "1 29760U 99025BA  25359.55621020  .00000127  00000+0  91117-4 0  9996", "line2": "2 29760  98.7625   1.3567 0131384 137.4967 223.6465 14.08297007972736"}}, "geometry": {"type": "Point", "coordinates": [-178.22012180188676, -1.0579718228542918]}}, {"type": "Feature", "properties": {"norad_id": 29762, "name": "FENGYUN 1C DEB", "group": "fengyun-1c-debris", "lat": 62.79655712036977, "lon": 179.69200330004077, "alt_km": 956.7168658284118, "timestamp": "2025-12-26T03:50:12.364252+00:00", "meta": {"OBJECT_NAME": "FENGYUN 1C DEB", "OBJECT_ID": "1999-025BC", "EPOCH": "2025-12-25T12:41:54.360096", "MEAN_MOTION": 14.22608315, "ECCENTRICITY": 0.0203358, "INCLINATION": 98.5807, "RA_OF_ASC_NODE": 341.9949, "ARG_OF_PERICENTER": 298.364, "MEAN_ANOMALY": 188.9175, "EPHEMERIS_TYPE": 0, "CLASSIFICATION_TYPE": "U", "NORAD_CAT_ID": 29762, "ELEMENT_SET_NO": 999, "REV_AT_EPOCH": 98130, "BSTAR": 0.00034012, "MEAN_MOTION_DOT": 8.91e-06, "MEAN_MOTION_DDOT": 0}, "tle": {"line1": "1 29762U 99025BC  25359.52910139  .00000891  00000+0  34012-3 0  9995", "line2": "2 29762  98.5807 341.9949 0203358 298.3640 188.9175 14.22608315981309"}}, "geometry": {"type": "Point", "coordinates": [179.69200330004077, 62.79655712036977]}}, {"type": "Feature", "properties": {"norad_id": 29763, "name": "FENGYUN 1C DEB", "group": "fengyun-1c-debris", "lat": -9.605313894451356, "lon": -19.330946599355812, "alt_km": 952.5530975620031, "timestamp": "2025-12-26T03:50:12.364262+00:00", "meta": {"OBJECT_NAME": "FENGYUN 1C DEB", "OBJECT_ID": "1999-025BD", "EPOCH": "2025-12-25T13:07:50.193408", "MEAN_MOTION": 14.07884456, "ECCENTRICITY": 0.0128003, "INCLINATION": 98.7628, "RA_OF_ASC_NODE": 338.5785, "ARG_OF_PERICENTER": 144.4371, "MEAN_ANOMALY": 342.6882, "EPHEMERIS_TYPE": 0, "CLASSIFICATION_TYPE": "U", "NORAD_CAT_ID": 29763, "ELEMENT_SET_NO": 999, "REV_AT_EPOCH": 97230, "BSTAR": 0.00028254, "MEAN_MOTION_DOT": 4.75e-06, "MEAN_MOTION_DDOT": 0}, "tle": {"line1": "1 29763U 99025BD  25359.54710872  .00000475  00000+0  28254-3 0  9999", "line2": "2 29763  98.7628 338.5785 0128003 144.4371 342.6882 14.07884456972307"}}, "geometry": {"type": "Point", "coordinates": [-19.330946599355812, -9.605313894451356]}}, {"type": "Feature", "properties": {"norad_id": 29765, "name": "FENGYUN 1C DEB", "group": "fengyun-1c-debris", "lat": -42.38862541838665, "lon": 26.079618746581243, "alt_km": 899.1963773035595, "timestamp": "2025-12-26T03:50:12.364273+00:00", "meta": {"OBJECT_NAME": "FENGYUN 1C DEB", "OBJECT_ID": "1999-025BF", "EPOCH": "2025-12-25T00:56:36.278592", "MEAN_MOTION": 14.02152125, "ECCENTRICITY": 0.00601058, "INCLINATION": 98.8289, "RA_OF_ASC_NODE": 16.8387, "ARG_OF_PERICENTER": 58.8107, "MEAN_ANOMALY": 5.779, "EPHEMERIS_TYPE": 0, "CLASSIFICATION_TYPE": "U", "NORAD_CAT_ID": 29765, "ELEMENT_SET_NO": 999, "REV_AT_EPOCH": 96923, "BSTAR": -6.8814641e-05, "MEAN_MOTION_DOT": -1.49e-06, "MEAN_MOTION_DDOT": 0}, "tle": {"line1": "1 29765U 99025BF  25359.03930878 -.00000149  00000+0 -68815-4 0  9993", "line2": "2 29765  98.8289  16.8387 0060105  58.8107   5.7790 14.02152125969239"}}, "geometry": {"type": "Point", "coordinates": [26.079618746581243, -42.38862541838665]}}, {"type": "Feature", "properties": {"norad_id": 29766, "name": "FENGYUN 1C DEB", "group": "fengyun-1c-debris", "lat": -40.71267432207597, "lon": 121.49880596833812, "alt_km": 817.8208591493094, "timestamp": "2025-12-26T03:50:12.364283+00:00", "meta": {"OBJECT_NAME": "FENGYUN 1C DEB", "OBJECT_ID": "1999-025BG", "EPOCH": "2025-12-25T20:09:49.411872", "MEAN_MOTION": 13.97094688, "ECCENTRICITY": 0.0145553, "INCLINATION": 98.6865, "RA_OF_ASC_NODE": 308.7559, "ARG_OF_PERICENTER": 251.7005, "MEAN_ANOMALY": 163.2022, "EPHEMERIS_TYPE": 0, "CLASSIFICATION_TYPE": "U", "NORAD_CAT_ID": 29766, "ELEMENT_SET_NO": 999, "REV_AT_EPOCH": 95987, "BSTAR": 0.00098447, "MEAN_MOTION_DOT": 1.462e-05, "MEAN_MOTION_DDOT": 0}, "tle": {"line1": "1 29766U 99025BG  25359.84015523  .00001462  00000+0  98447-3 0  9994", "line2": "2 29766  98.6865 308.7559 0145553 251.7005 163.2022 13.97094688959873"}}, "geometry": {"type": "Point", "coordinates": [121.49880596833812, -40.71267432207597]}}, {"type": "Feature", "properties": {"norad_id": 29767, "name": "FENGYUN 1C DEB", "group": "fengyun-1c-debris", "lat": 58.916456175382315, "lon": -46.27578297366813, "alt_km": 679.8323457406213, "timestamp": "2025-12-26T03:50:12.364293+00:00", "meta": {"OBJECT_NAME": "FENGYUN 1C DEB", "OBJECT_ID": "1999-025BH", "EPOCH": "2025-12-25T04:08:57.341760", "MEAN_MOTION": 14.03473048, "ECCENTRICITY": 0.03327, "INCLINATION": 98.1995, "RA_OF_ASC_NODE": 326.6698, "ARG_OF_PERICENTER": 25.9623, "MEAN_ANOMALY": 87.838, "EPHEMERIS_TYPE": 0, "CLASSIFICATION_TYPE": "U", "NORAD_CAT_ID": 29767, "ELEMENT_SET_NO": 999, "REV_AT_EPOCH": 95774, "BSTAR": 0.0027809, "MEAN_MOTION_DOT": 7.088e-05, "MEAN_MOTION_DDOT": 0}, "tle": {"line1": "1 29767U 99025BH  25359.17288590  .00007088  00000+0  27809-2 0  9990", "line2": "2 29767  98.1995 326.6698 0332700  25.9623  87.8380 14.03473048957746"}}, "geometry": {"type": "Point", "coordinates": [-46.27578297366813, 58.916456175382315]}}]}